OBJECT_NAME,OBJECT_ID,EPOCH,MEAN_MOTION,ECCENTRICITY,INCLINATION,RA_OF_ASC_NODE,ARG_OF_PERICENTER,MEAN_ANOMALY,EPHEMERIS_TYPE,CLASSIFICATION_TYPE,NORAD_CAT_ID,ELEMENT_SET_NO,REV_AT_EPOCH,BSTAR,MEAN_MOTION_DOT,MEAN_MOTION_DDOT
IRIDIUM 154,2018-061F,2026-07-10T01:06:06.368256,14.34217301,.00023133,86.3945,47.2461,90.2087,269.9374,0,U,43574,999,41668,.74938308E-4,.23E-5,0
IRIDIUM 163,2018-061G,2026-07-10T00:38:42.377568,14.34217315,.00021782,86.3939,47.1685,85.1435,275.0009,0,U,43575,999,41665,.5616075E-4,.177E-5,0
IRIDIUM 156,2018-061H,2026-07-10T01:42:38.426112,14.34217543,.00020578,86.3939,47.1572,90.4782,269.6649,0,U,43576,999,41665,.4126852E-4,.135E-5,0
IRIDIUM 164,2018-061J,2026-07-09T13:31:58.583136,14.34216708,.00023074,86.3941,47.4104,89.7365,270.4095,0,U,43577,999,41662,.36382169E-4,.122E-5,0
IRIDIUM 159,2018-061K,2026-07-10T07:11:26.350656,14.34217565,.00021865,86.3939,47.0388,85.2947,274.8498,0,U,43578,999,41669,.39381727E-4,.13E-5,0
IRIDIUM 180,2019-002A,2026-07-10T08:51:11.043648,14.34217020,.00021197,86.3985,343.9061,91.1495,268.9943,0,U,43922,999,39231,.14282898E-4,.6E-6,0
IRIDIUM 176,2019-002B,2026-07-10T09:41:48.926400,14.72245231,.00023463,86.6105,343.8314,89.2062,270.9424,0,U,43923,999,40266,.74525413E-4,.494E-5,0
IRIDIUM 168,2019-002C,2026-07-10T08:42:02.613600,14.34217872,.00022436,86.3988,343.9865,90.7210,269.4243,0,U,43924,999,39229,.8973003E-5,.45E-6,0
IRIDIUM 173,2019-002D,2026-07-10T10:04:14.797344,14.34217678,.00021921,86.3987,343.8507,91.6519,268.4928,0,U,43925,999,39228,-.12534919E-4,-.15E-6,0
IRIDIUM 169,2019-002E,2026-07-09T23:55:36.884352,14.38613183,.0001745,86.4218,15.6541,99.0711,261.0685,0,U,43926,999,39350,.50210599E-4,.174E-5,0
IRIDIUM 172,2019-002F,2026-07-10T09:55:06.978144,14.34217546,.00021909,86.3983,343.8613,90.2739,269.8707,0,U,43927,999,39229,.45509684E-4,.147E-5,0
IRIDIUM 175,2019-002G,2026-07-10T15:14:11.846112,14.43625714,.0005046,86.4514,280.7204,124.4714,235.6965,0,U,43928,999,40236,.47907E-4,.183E-5,0
IRIDIUM 171,2019-002H,2026-07-10T09:27:42.923520,14.34217468,.00021898,86.3992,344.1779,95.3165,264.8281,0,U,43929,999,39228,.24440777E-4,.88E-6,0
IRIDIUM 170,2019-002J,2026-07-09T22:25:35.116608,14.72245345,.00023277,86.6105,344.0300,85.6191,274.5292,0,U,43930,999,40260,.78671445E-4,.521E-5,0
IRIDIUM 167,2019-002K,2026-07-10T09:18:34.922880,14.34217642,.00022224,86.3986,343.8945,99.6208,260.5239,0,U,43931,999,39228,.32720748E-4,.111E-5,0
IRIDIUM 181,2023-068S,2026-07-10T02:58:17.431968,14.43310542,.00024415,86.4478,47.1994,84.6564,275.4915,0,U,56726,999,16574,.51624538E-4,.194E-5,0
IRIDIUM 177,2023-068T,2026-07-10T07:25:01.571808,14.80025290,.0002146,86.1981,317.8128,92.8146,267.3320,0,U,56727,999,16978,.89432842E-4,.703E-5,0
IRIDIUM 174,2023-068U,2026-07-10T19:20:03.893568,14.72254496,.0002047,86.6114,343.8154,84.4121,275.7330,0,U,56728,999,16949,.70055E-4,.466E-5,0
IRIDIUM 178,2023-068V,2026-07-08T22:41:57.081984,14.80025032,.00022733,86.6533,16.2655,87.3865,272.7617,0,U,56729,999,16958,.69253627E-4,.55E-5,0
IRIDIUM 179,2023-068W,2026-07-10T11:53:33.199296,14.80032506,.0002285,86.6765,24.6664,91.6687,268.4797,0,U,56730,999,16981,.74572E-4,.59E-5,0
