IRIDIUM 154             
1 43574U 18061F   26191.04590704  .00000230  00000+0  74938-4 0  9996
2 43574  86.3945  47.2461 0002313  90.2087 269.9374 14.34217301416680
IRIDIUM 163             
1 43575U 18061G   26191.02687937  .00000177  00000+0  56161-4 0  9998
2 43575  86.3939  47.1685 0002178  85.1435 275.0009 14.34217315416655
IRIDIUM 156             
1 43576U 18061H   26191.07127808  .00000135  00000+0  41269-4 0  9997
2 43576  86.3939  47.1572 0002057  90.4782 269.6649 14.34217543416653
IRIDIUM 164             
1 43577U 18061J   26190.56387249  .00000122  00000+0  36382-4 0  9994
2 43577  86.3941  47.4104 0002307  89.7365 270.4095 14.34216708416621
IRIDIUM 159             
1 43578U 18061K   26191.29961054  .00000130  00000+0  39382-4 0  9990
2 43578  86.3939  47.0388 0002186  85.2947 274.8498 14.34217565416695
IRIDIUM 180             
1 43922U 19002A   26191.36887782  .00000060  00000+0  14283-4 0  9997
2 43922  86.3985 343.9061 0002119  91.1495 268.9943 14.34217020392312
IRIDIUM 176             
1 43923U 19002B   26191.40403850  .00000494  00000+0  74525-4 0  9999
2 43923  86.6105 343.8314 0002346  89.2062 270.9424 14.72245231402664
IRIDIUM 168             
1 43924U 19002C   26191.36253025  .00000045  00000+0  89730-5 0  9999
2 43924  86.3988 343.9865 0002243  90.7210 269.4243 14.34217872392298
IRIDIUM 173             
1 43925U 19002D   26191.41961571 -.00000015  00000+0 -12535-4 0  9995
2 43925  86.3987 343.8507 0002192  91.6519 268.4928 14.34217678392287
IRIDIUM 169             
1 43926U 19002E   26190.99695468  .00000174  00000+0  50211-4 0  9994
2 43926  86.4218  15.6541 0001745  99.0711 261.0685 14.38613183393507
IRIDIUM 172             
1 43927U 19002F   26191.41327521  .00000147  00000+0  45510-4 0  9991
2 43927  86.3983 343.8613 0002190  90.2739 269.8707 14.34217546392295
IRIDIUM 175             
1 43928U 19002G   26191.63485933  .00000183  00000+0  47907-4 0  9990
2 43928  86.4514 280.7204 0005046 124.4714 235.6965 14.43625714402365
IRIDIUM 171             
1 43929U 19002H   26191.39424680  .00000088  00000+0  24441-4 0  9998
2 43929  86.3992 344.1779 0002189  95.3165 264.8281 14.34217468392285
IRIDIUM 170             
1 43930U 19002J   26190.93443422  .00000521  00000+0  78671-4 0  9990
2 43930  86.6105 344.0300 0002327  85.6191 274.5292 14.72245345402605
IRIDIUM 167             
1 43931U 19002K   26191.38790420  .00000111  00000+0  32721-4 0  9995
2 43931  86.3986 343.8945 0002222  99.6208 260.5239 14.34217642392285
IRIDIUM 181             
1 56726U 23068S   26191.12381287  .00000194  00000+0  51625-4 0  9992
2 56726  86.4478  47.1994 0002441  84.6564 275.4915 14.43310542165746
IRIDIUM 177             
1 56727U 23068T   26191.30904597  .00000703  00000+0  89433-4 0  9992
2 56727  86.1981 317.8128 0002146  92.8146 267.3320 14.80025290169780
IRIDIUM 174             
1 56728U 23068U   26191.80560062  .00000466  00000+0  70055-4 0  9999
2 56728  86.6114 343.8154 0002047  84.4121 275.7330 14.72254496169497
IRIDIUM 178             
1 56729U 23068V   26189.94579956  .00000550  00000+0  69254-4 0  9997
2 56729  86.6533  16.2655 0002273  87.3865 272.7617 14.80025032169584
IRIDIUM 179             
1 56730U 23068W   26191.49552314  .00000590  00000+0  74572-4 0  9994
2 56730  86.6765  24.6664 0002285  91.6687 268.4797 14.80032506169810
